STARLINK-31476          
1 59523U 24073N   26068.03407429 -.00002186  00000+0 -69917-4 0  9995
2 59523  43.0016 321.8672 0001693 264.7192  95.3466 15.27579294106077
LUR-1                   
1 60506U 24149AQ  26068.79566301  .00009121  00000+0  32985-3 0  9998
2 60506  97.3790 148.4255 0002777 309.1571  50.9421 15.28658648 86785
